SWAS                    
1 25560U 98071A   26068.53487068  .00004636  00000+0  29986-3 0  9991
2 25560  69.8952 124.3662 0004099  14.3215 345.8065 15.08888192482231
STARLINK-3938           
1 52566U 22051AK  26068.47226673 -.00000844  00000+0 -34923-4 0  9995
2 52566  53.2168 135.0964 0001315  95.8337 264.2805 15.08838338211349
