[{"OBJECT_NAME":"SWAS","OBJECT_ID":"1998-071A","EPOCH":"2026-03-09T12:50:12.826752","MEAN_MOTION":15.08888192,"ECCENTRICITY":0.00040991,"INCLINATION":69.8952,"RA_OF_ASC_NODE":124.3662,"ARG_OF_PERICENTER":14.3215,"MEAN_ANOMALY":345.8065,"EPHEMERIS_TYPE":0,"CLASSIFICATION_TYPE":"U","NORAD_CAT_ID":25560,"ELEMENT_SET_NO":999,"REV_AT_EPOCH":48223,"BSTAR":0.00029986322,"MEAN_MOTION_DOT":4.636e-5,"MEAN_MOTION_DDOT":0},{"OBJECT_NAME":"STARLINK-3938","OBJECT_ID":"2022-051AK","EPOCH":"2026-03-09T11:20:03.845472","MEAN_MOTION":15.08838338,"ECCENTRICITY":0.00013156,"INCLINATION":53.2168,"RA_OF_ASC_NODE":135.0964,"ARG_OF_PERICENTER":95.8337,"MEAN_ANOMALY":264.2805,"EPHEMERIS_TYPE":0,"CLASSIFICATION_TYPE":"U","NORAD_CAT_ID":52566,"ELEMENT_SET_NO":999,"REV_AT_EPOCH":21134,"BSTAR":-3.4923413e-5,"MEAN_MOTION_DOT":-8.44e-6,"MEAN_MOTION_DDOT":0}]
